[{"OBJECT_NAME":"BRITE-AUSTRIA","OBJECT_ID":"2013-009F","EPOCH":"2026-03-09T11:09:59.101632","MEAN_MOTION":14.3649602,"ECCENTRICITY":0.00103487,"INCLINATION":98.3955,"RA_OF_ASC_NODE":250.3783,"ARG_OF_PERICENTER":171.7863,"MEAN_ANOMALY":188.3495,"EPHEMERIS_TYPE":0,"CLASSIFICATION_TYPE":"U","NORAD_CAT_ID":39091,"ELEMENT_SET_NO":999,"REV_AT_EPOCH":68273,"BSTAR":0.00011657143,"MEAN_MOTION_DOT":3.0e-6,"MEAN_MOTION_DDOT":0},{"OBJECT_NAME":"CZ-4 DEB","OBJECT_ID":"1990-081CG","EPOCH":"2026-03-08T22:35:34.565856","MEAN_MOTION":14.34395613,"ECCENTRICITY":0.00126302,"INCLINATION":98.5615,"RA_OF_ASC_NODE":67.7818,"ARG_OF_PERICENTER":276.3692,"MEAN_ANOMALY":113.5406,"EPHEMERIS_TYPE":0,"CLASSIFICATION_TYPE":"U","NORAD_CAT_ID":20974,"ELEMENT_SET_NO":999,"REV_AT_EPOCH":83538,"BSTAR":0.00085329891,"MEAN_MOTION_DOT":2.36e-5,"MEAN_MOTION_DDOT":0}]
